[{"icaoId":"KBWI","receiptTime":"2025-09-21T22:38:13.247Z","obsTime":1758493980,"reportTime":"2025-09-21T22:33:00.000Z","temp":21.1,"dewp":16.1,"wdir":120,"wspd":7,"visib":"10+","altim":1022.4,"qcField":4,"metarType":"SPECI","rawOb":"SPECI KBWI 212233Z 12007KT 10SM BKN027 OVC035 21/16 A3019 RMK AO2 T02110161","lat":39.1733,"lon":-76.684,"elev":42,"name":"Baltimore-Washington Intl, MD, US","cover":"OVC","clouds":[{"cover":"BKN","base":2700},{"cover":"OVC","base":3500}],"fltCat":"MVFR"}]