[{"icaoId":"KDCA","receiptTime":"2025-09-21T21:56:26.239Z","obsTime":1758491520,"reportTime":"2025-09-21T22:00:00.000Z","temp":22.2,"dewp":16.7,"wdir":130,"wspd":8,"visib":"10+","altim":1022.1,"slp":1021.9,"qcField":4,"metarType":"METAR","rawOb":"METAR KDCA 212152Z 13008KT 10SM OVC035 22/17 A3018 RMK AO2 SLP219 T02220167","lat":38.8472,"lon":-77.0345,"elev":4,"name":"Washington/Reagan-National Arpt, VA, US","cover":"OVC","clouds":[{"cover":"OVC","base":3500}],"fltCat":"VFR"}]