[{"icaoId":"KIAD","receiptTime":"2025-09-21T21:56:26.393Z","obsTime":1758491520,"reportTime":"2025-09-21T22:00:00.000Z","temp":22.2,"dewp":16.7,"wdir":100,"wspd":7,"visib":"10+","altim":1021.8,"slp":1021.6,"qcField":12,"metarType":"METAR","rawOb":"METAR KIAD 212152Z 10007KT 10SM SCT025 BKN034 BKN300 22/17 A3017 RMK AO2 SLP216 T02220167 $","lat":38.9348,"lon":-77.4473,"elev":90,"name":"Washington/Dulles Intl, VA, US","cover":"BKN","clouds":[{"cover":"SCT","base":2500},{"cover":"BKN","base":3400},{"cover":"BKN","base":30000}],"fltCat":"VFR"}]