[{"icaoId":"KPHL","receiptTime":"2025-09-21T21:58:27.983Z","obsTime":1758491640,"reportTime":"2025-09-21T22:00:00.000Z","temp":22.8,"dewp":9.4,"wdir":100,"wspd":9,"visib":"10+","altim":1023.1,"slp":1022.9,"qcField":12,"metarType":"METAR","rawOb":"METAR KPHL 212154Z 10009KT 10SM FEW065 SCT150 23/09 A3021 RMK AO2 SLP229 T02280094 $","lat":39.8733,"lon":-75.2268,"elev":2,"name":"Philadelphia Intl, PA, US","cover":"SCT","clouds":[{"cover":"FEW","base":6500},{"cover":"SCT","base":15000}],"fltCat":"VFR"}]