[{"icaoId":"KJFK","receiptTime":"2025-09-21T21:58:10.586Z","obsTime":1758491460,"reportTime":"2025-09-21T22:00:00.000Z","temp":18.3,"dewp":8.9,"wdir":110,"wspd":11,"visib":"10+","altim":1024.8,"slp":1024.7,"qcField":12,"metarType":"METAR","rawOb":"METAR KJFK 212151Z 11011KT 10SM FEW050 BKN250 18/09 A3026 RMK AO2 SLP247 T01830089 $","lat":40.6392,"lon":-73.7639,"elev":3,"name":"New York/JF Kennedy Intl, NY, US","cover":"BKN","clouds":[{"cover":"FEW","base":5000},{"cover":"BKN","base":25000}],"fltCat":"VFR"}]